NORAD_CAT_ID,OBJECT_NAME,OBJECT_TYPE,EPOCH,MEAN_MOTION,ECCENTRICITY,INCLINATION,RA_OF_ASC_NODE,ARG_OF_PERICENTER,MEAN_ANOMALY,BSTAR,MEAN_MOTION_DOT,MEAN_MOTION_DDOT,TLE_LINE0,TLE_LINE1,TLE_LINE2,SEMIMAJOR_AXIS,PERIOD,APOGEE,PERIGEE,DECAYED
52867.0,STARLINK-4126,PAYLOAD,2022-11-18 05:22:29,15.0880604,0.0002698,53.2193,44.6557,37.2757,322.8422,0.00050443,7.742e-05,0.0,0 STARLINK-4126,1 52867U 22062AP  22322.22395625  .00007742  00000-0  50443-3 0  9994,2 52867  53.2193  44.6557 0002698  37.2757 322.8422 15.08806040 24135,6917.984,95.44,541.716,537.9830000000002,0.0
52867.0,STARLINK-4126,PAYLOAD,2022-11-18 13:19:24,15.08887558,0.0002882,53.2175,43.1678,19.4168,340.6934,-0.00054665,-8.99e-05,0.0,0 STARLINK-4126,1 52867U 22062AP  22322.55514290 -.00008990  00000-0 -54665-3 0  9999,2 52867  53.2175  43.1678 0002882  19.4168 340.6934 15.08887558 24180,6917.735,95.435,541.594,537.606,0.0
52867.0,STARLINK-4126,PAYLOAD,2022-11-18 22:51:44,15.0883954,0.0002608,53.2179,41.3845,33.3082,326.8074,2.2474e-05,6.9e-07,0.0,0 STARLINK-4126,1 52867U 22062AP  22322.95259730  .00000069  00000-0  22474-4 0  9999,2 52867  53.2179  41.3845 0002608  33.3082 326.8074 15.08839540 24242,6917.882,95.438,541.5509999999998,537.943,0.0
52867.0,STARLINK-4126,PAYLOAD,2022-11-19 11:34:48,15.0885109,0.0002594,53.2173,39.005,31.3284,328.7863,0.00012232,1.659e-05,0.0,0 STARLINK-4126,1 52867U 22062AP  22323.48250597  .00001659  00000-0  12232-3 0  9996,2 52867  53.2173  39.0050 0002594  31.3284 328.7863 15.08851090 23839,6917.846,95.437,541.506,537.9169999999998,0.0
52867.0,STARLINK-4126,PAYLOAD,2022-11-19 13:10:11,15.0884796,0.0002345,53.2191,38.7072,35.6972,324.4177,0.00011175,1.491e-05,0.0,0 STARLINK-4126,1 52867U 22062AP  22323.54874744  .00001491  00000-0  11175-3 0  9998,2 52867  53.2191  38.7072 0002345  35.6972 324.4177 15.08847960 24332,6917.856,95.437,541.3430000000002,538.099,0.0
52867.0,STARLINK-4126,PAYLOAD,2022-11-20 03:28:40,15.08846899,0.0002443,53.2185,36.0302,30.846,329.2675,1.4124e-05,-6.4e-07,0.0,0 STARLINK-4126,1 52867U 22062AP  22324.14491026 -.00000064  00000-0  14124-4 0  9997,2 52867  53.2185  36.0302 0002443  30.8460 329.2675 15.08846899 24426,6917.859,95.437,541.414,538.034,0.0
52867.0,STARLINK-4126,PAYLOAD,2022-11-20 09:50:12,15.08848239,0.0002824,53.2189,34.8439,29.7042,330.411,8.2895e-05,1.031e-05,0.0,0 STARLINK-4126,1 52867U 22062AP  22324.40986680  .00001031  00000-0  82895-4 0  9995,2 52867  53.2189  34.8439 0002824  29.7042 330.4110 15.08848239 23970,6917.855,95.437,541.674,537.7669999999998,0.0
52867.0,STARLINK-4126,PAYLOAD,2022-11-20 14:36:22,15.08843662,0.0003011,53.2194,33.9523,26.9566,333.1582,1.9839e-05,2.7e-07,0.0,0 STARLINK-4126,1 52867U 22062AP  22324.60859073  .00000027  00000-0  19839-4 0  9994,2 52867  53.2194  33.9523 0003011  26.9566 333.1582 15.08843662 24002,6917.869000000002,95.437,541.817,537.651,0.0
52867.0,STARLINK-4126,PAYLOAD,2022-11-21 09:41:00,15.08838854,0.0002503,53.2197,30.3833,29.5161,330.5972,-1.3253e-05,-4.99e-06,0.0,0 STARLINK-4126,1 52867U 22062AP  22325.40347308 -.00000499  00000-0 -13253-4 0  9995,2 52867  53.2197  30.3833 0002503  29.5161 330.5972 15.08838854 24613,6917.884,95.438,541.48,538.0169999999998,0.0
52867.0,STARLINK-4126,PAYLOAD,2022-11-21 11:16:23,15.088431699999996,0.0002594,53.2198,30.0861,27.638,332.475,-8.8446e-05,-1.696e-05,0.0,0 STARLINK-4126,1 52867U 22062AP  22325.46971300 -.00001696  00000-0 -88446-4 0  9992,2 52867  53.2198  30.0861 0002594  27.6380 332.4750 15.08843170 24133,6917.871,95.437,541.53,537.941,0.0
52867.0,STARLINK-4126,PAYLOAD,2022-11-21 12:51:46,15.08843219,0.0002644,53.2195,29.7884,26.8619,333.2509,-7.7038e-05,-1.515e-05,0.0,0 STARLINK-4126,1 52867U 22062AP  22325.53595247 -.00001515  00000-0 -77038-4 0  9997,2 52867  53.2195  29.7884 0002644  26.8619 333.2509 15.08843219 24148,6917.871,95.437,541.565,537.906,0.0
52867.0,STARLINK-4126,PAYLOAD,2022-11-22 12:42:33,15.08841611,0.0002617,53.2191,25.3266,25.2172,334.8948,-3.1828e-05,-7.95e-06,0.0,0 STARLINK-4126,1 52867U 22062AP  22326.52955094 -.00000795  00000-0 -31828-4 0  9993,2 52867  53.2191  25.3266 0002617  25.2172 334.8948 15.08841611 24785,6917.875,95.437,541.5509999999998,537.93,0.0
52867.0,STARLINK-4126,PAYLOAD,2022-11-23 10:57:57,15.08834017,0.0002634,53.2193,21.1632,24.3999,335.7118,5.146e-06,-2.07e-06,0.0,0 STARLINK-4126,1 52867U 22062AP  22327.45691706 -.00000207  00000-0  51460-5 0  9995,2 52867  53.2193  21.1632 0002634  24.3999 335.7118 15.08834017 24437,6917.899,95.438,541.586,537.942,0.0
52867.0,STARLINK-4126,PAYLOAD,2022-11-23 12:33:20,15.08833644,0.0002631999999999,53.2193,20.866,24.042,336.0695,-2.4115e-07,-2.92e-06,0.0,0 STARLINK-4126,1 52867U 22062AP  22327.52315762 -.00000292  00000-0 -24115-6 0  9991,2 52867  53.2193  20.8660 0002632  24.0420 336.0695 15.08833644 24932,6917.9,95.438,541.586,537.944,0.0
52867.0,STARLINK-4126,PAYLOAD,2022-11-24 10:48:44,15.08833324,0.0002744,53.2199,16.7027,24.8238,335.2886,6.5962e-06,-1.84e-06,0.0,0 STARLINK-4126,1 52867U 22062AP  22328.45052000 -.00000184  00000-0  65962-5 0  9990,2 52867  53.2199  16.7027 0002744  24.8238 335.2886 15.08833324 24587,6917.901,95.438,541.664,537.868,0.0
52867.0,STARLINK-4126,PAYLOAD,2022-11-24 12:24:08,15.08832098,0.0002763,53.2198,16.4053,24.5438,335.5686,-5.0644e-06,-3.69e-06,0.0,0 STARLINK-4126,1 52867U 22062AP  22328.51676144 -.00000369  00000-0 -50644-5 0  9995,2 52867  53.2198  16.4053 0002763  24.5438 335.5686 15.08832098 24591,6917.905,95.438,541.681,537.8580000000002,0.0
52867.0,STARLINK-4126,PAYLOAD,2022-11-25 12:14:54,15.08842284,0.000304,53.2199,11.9452,29.8702,330.2463,6.9081e-05,8.11e-06,0.0,0 STARLINK-4126,1 52867U 22062AP  22329.51035509  .00000811  00000-0  69081-4 0  9994,2 52867  53.2199  11.9452 0003040  29.8702 330.2463 15.08842284 25231,6917.873000000001,95.437,541.841,537.635,0.0
52867.0,STARLINK-4126,PAYLOAD,2022-11-25 20:11:50,15.08838173,0.000273,53.2199,10.4582,25.7189,334.3938,3.3246e-05,2.41e-06,0.0,0 STARLINK-4126,1 52867U 22062AP  22329.84155850  .00000241  00000-0  33246-4 0  9993,2 52867  53.2199  10.4582 0002730  25.7189 334.3938 15.08838173 24792,6917.886,95.438,541.64,537.862,0.0
52867.0,STARLINK-4126,PAYLOAD,2022-11-26 10:30:17,15.08847621,0.000275,53.219,7.7827,27.5481,332.5657,0.00015522,2.183e-05,0.0,0 STARLINK-4126,1 52867U 22062AP  22330.43770789  .00002183  00000-0  15522-3 0  9997,2 52867  53.2190   7.7827 0002750  27.5481 332.5657 15.08847621 24887,6917.857,95.437,541.625,537.82,0.0
52867.0,STARLINK-4126,PAYLOAD,2022-11-26 20:02:36,15.08850163,0.0002809,53.219,5.9985,28.2624,331.852,0.00015459,2.173e-05,0.0,0 STARLINK-4126,1 52867U 22062AP  22330.83514445  .00002173  00000-0  15459-3 0  9994,2 52867  53.2190   5.9985 0002809  28.2624 331.8520 15.08850163 25432,6917.849,95.437,541.658,537.771,0.0
52867.0,STARLINK-4126,PAYLOAD,2022-11-27 10:21:05,15.08840347,0.0002755,53.2199,3.3208,31.3775,328.7381,-7.0336e-05,-1.408e-05,0.0,0 STARLINK-4126,1 52867U 22062AP  22331.43131474 -.00001408  00000-0 -70336-4 0  9996,2 52867  53.2199   3.3208 0002755  31.3775 328.7381 15.08840347 25526,6917.879,95.438,541.65,537.8380000000002,0.0
52867.0,STARLINK-4126,PAYLOAD,2022-11-28 02:14:57,15.08819033,0.0002761,53.2198,0.3472,35.8234,324.2943,7.8122e-05,9.54e-06,0.0,0 STARLINK-4126,1 52867U 22062AP  22332.09372589  .00000954  00000-0  78122-4 0  9997,2 52867  53.2198   0.3472 0002761  35.8234 324.2943 15.08819033 25625,6917.944,95.439,541.72,537.899,0.0
52867.0,STARLINK-4126,PAYLOAD,2022-11-28 11:47:15,15.08840909,0.0002895,53.2187,358.5636,31.5218,328.5948,-7.01e-05,-1.404e-05,0.0,0 STARLINK-4126,1 52867U 22062AP  22332.49115727 -.00001404  00000-0 -70100-4 0  9991,2 52867  53.2187 358.5636 0002895  31.5218 328.5948 15.08840909 25680,6917.878000000002,95.437,541.745,537.74,0.0
52867.0,STARLINK-4126,PAYLOAD,2022-11-29 11:38:03,15.08833977,0.0002927,53.2191,354.10400000000016,29.7079,330.4079,4.236800000000001e-05,3.86e-06,0.0,0 STARLINK-4126,1 52867U 22062AP  22333.48475923  .00000386  00000-0  42368-4 0  9999,2 52867  53.2191 354.1040 0002927  29.7079 330.4079 15.08833977 25343,6917.899,95.438,541.789,537.739,0.0
52867.0,STARLINK-4126,PAYLOAD,2022-11-29 17:59:35,15.08834967,0.0002952,53.2192,352.9145,30.0546,330.0615,3.7583e-05,3.1e-06,0.0,0 STARLINK-4126,1 52867U 22062AP  22333.74971987  .00000310  00000-0  37583-4 0  9999,2 52867  53.2192 352.9145 0002952  30.0546 330.0615 15.08834967 25878,6917.896,95.438,541.803,537.719,0.0
52867.0,STARLINK-4126,PAYLOAD,2022-11-30 09:53:27,15.08834377,0.0003008,53.2188,349.9406,28.1495,331.9659,3.8964e-05,3.31e-06,0.0,0 STARLINK-4126,1 52867U 22062AP  22334.41212431  .00000331  00000-0  38964-4 0  9993,2 52867  53.2188 349.9406 0003008  28.1495 331.9659 15.08834377 25483,6917.898,95.438,541.8430000000002,537.682,0.0
52867.0,STARLINK-4126,PAYLOAD,2022-12-01 09:44:14,15.08837193,0.0003086,53.2187,345.4803,29.3769,330.7397,7.077300000000001e-05,8.38e-06,0.0,0 STARLINK-4126,1 52867U 22062AP  22335.40572397  .00000838  00000-0  70773-4 0  9999,2 52867  53.2187 345.4803 0003086  29.3769 330.7397 15.08837193 25639,6917.889,95.438,541.889,537.619,0.0
52867.0,STARLINK-4126,PAYLOAD,2022-12-02 09:35:01,15.0884188,0.0003245,53.2193,341.0204,28.0726,332.0441,5.0502e-05,5.15e-06,0.0,0 STARLINK-4126,1 52867U 22062AP  22336.39932265  .00000515  00000-0  50502-4 0  9992,2 52867  53.2193 341.0204 0003245  28.0726 332.0441 15.08841880 25788,6917.875,95.437,541.984,537.495,0.0
52867.0,STARLINK-4126,PAYLOAD,2022-12-02 17:31:57,15.08841454,0.0003178,53.2191,339.5335,28.6263,331.4904,5.7448e-05,6.26e-06,0.0,0 STARLINK-4126,1 52867U 22062AP  22336.73052218  .00000626  00000-0  57448-4 0  9990,2 52867  53.2191 339.5335 0003178  28.6263 331.4904 15.08841454 26325,6917.876,95.437,541.939,537.5419999999998,0.0
